{"type": "FeatureCollection", "features": [ {"type": "Feature", "properties": {"norad_id": 30630, "name": "FENGYUN 1C DEB", "group": "fengyun-1c-debris", "lat": -26.351026212586923, "lon": 175.8670895494338, "alt_km": 816.5053449414918, "timestamp": "2025-12-23T18:59:32.245044+00:00", "meta": {"OBJECT_NAME": "FENGYUN 1C DEB", "OBJECT_ID": "1999-025ANM", "EPOCH": "2025-12-22T23:35:26.189664", "MEAN_MOTION": 14.22412348, "ECCENTRICITY": 0.00257473, "INCLINATION": 99.1733, "RA_OF_ASC_NODE": 170.4353, "ARG_OF_PERICENTER": 45.9108, "MEAN_ANOMALY": 110.4793, "EPHEMERIS_TYPE": 0, "CLASSIFICATION_TYPE": "U", "NORAD_CAT_ID": 30630, "ELEMENT_SET_NO": 999, "REV_AT_EPOCH": 97358, "BSTAR": 0.00073129809, "MEAN_MOTION_DOT": 1.587e-05, "MEAN_MOTION_DDOT": 0}, "tle": {"line1": "1 30630U 99025ANM 25356.98294201  .00001587  00000+0  73130-3 0  9990", "line2": "2 30630  99.1733 170.4353 0025747  45.9108 110.4793 14.22412348973589"}}, "geometry": {"type": "Point", "coordinates": [175.8670895494338, -26.351026212586923]}}, {"type": "Feature", "properties": {"norad_id": 30632, "name": "FENGYUN 1C DEB", "group": "fengyun-1c-debris", "lat": -25.00473640814846, "lon": 134.05840820414127, "alt_km": 698.2294304866782, "timestamp": "2025-12-23T18:59:32.245053+00:00", "meta": {"OBJECT_NAME": "FENGYUN 1C DEB", "OBJECT_ID": "1999-025ANP", "EPOCH": "2025-12-23T03:29:32.890848", "MEAN_MOTION": 14.63085918, "ECCENTRICITY": 0.00141269, "INCLINATION": 98.8251, "RA_OF_ASC_NODE": 129.2127, "ARG_OF_PERICENTER": 139.123, "MEAN_ANOMALY": 36.0369, "EPHEMERIS_TYPE": 0, "CLASSIFICATION_TYPE": "U", "NORAD_CAT_ID": 30632, "ELEMENT_SET_NO": 999, "REV_AT_EPOCH": 97843, "BSTAR": 0.0037732162, "MEAN_MOTION_DOT": 0.00019403, "MEAN_MOTION_DDOT": 0}, "tle": {"line1": "1 30632U 99025ANP 25357.14551957  .00019403  00000+0  37732-2 0  9998", "line2": "2 30632  98.8251 129.2127 0014126 139.1230  36.0369 14.63085918978439"}}, "geometry": {"type": "Point", "coordinates": [134.05840820414127, -25.00473640814846]}}, {"type": "Feature", "properties": {"norad_id": 30633, "name": "FENGYUN 1C DEB", "group": "fengyun-1c-debris", "lat": 56.01643034258764, "lon": -150.69352690731614, "alt_km": 966.5618009204318, "timestamp": "2025-12-23T18:59:32.245062+00:00", "meta": {"OBJECT_NAME": "FENGYUN 1C DEB", "OBJECT_ID": "1999-025ANQ", "EPOCH": "2025-12-22T20:47:12.253920", "MEAN_MOTION": 14.04412123, "ECCENTRICITY": 0.0130074, "INCLINATION": 98.4204, "RA_OF_ASC_NODE": 221.1418, "ARG_OF_PERICENTER": 231.3571, "MEAN_ANOMALY": 190.6262, "EPHEMERIS_TYPE": 0, "CLASSIFICATION_TYPE": "U", "NORAD_CAT_ID": 30633, "ELEMENT_SET_NO": 999, "REV_AT_EPOCH": 96034, "BSTAR": 0.00078874, "MEAN_MOTION_DOT": 1.314e-05, "MEAN_MOTION_DDOT": 0}, "tle": {"line1": "1 30633U 99025ANQ 25356.86611405  .00001314  00000+0  78874-3 0  9997", "line2": "2 30633  98.4204 221.1418 0130074 231.3571 190.6262 14.04412123960340"}}, "geometry": {"type": "Point", "coordinates": [-150.69352690731614, 56.01643034258764]}}, {"type": "Feature", "properties": {"norad_id": 30634, "name": "FENGYUN 1C DEB", "group": "fengyun-1c-debris", "lat": -79.26348401445536, "lon": 40.68285193574375, "alt_km": 943.4616759032906, "timestamp": "2025-12-23T18:59:32.245072+00:00", "meta": {"OBJECT_NAME": "FENGYUN 1C DEB", "OBJECT_ID": "1999-025ANR", "EPOCH": "2025-12-20T21:54:31.497120", "MEAN_MOTION": 14.09764413, "ECCENTRICITY": 0.0121094, "INCLINATION": 99.2933, "RA_OF_ASC_NODE": 337.9942, "ARG_OF_PERICENTER": 73.9192, "MEAN_ANOMALY": 1.3638, "EPHEMERIS_TYPE": 0, "CLASSIFICATION_TYPE": "U", "NORAD_CAT_ID": 30634, "ELEMENT_SET_NO": 999, "REV_AT_EPOCH": 95732, "BSTAR": 0.0016161, "MEAN_MOTION_DOT": 2.993e-05, "MEAN_MOTION_DDOT": 0}, "tle": {"line1": "1 30634U 99025ANR 25354.91286455  .00002993  00000+0  16161-2 0  9999", "line2": "2 30634  99.2933 337.9942 0121094  73.9192   1.3638 14.09764413957324"}}, "geometry": {"type": "Point", "coordinates": [40.68285193574375, -79.26348401445536]}}, {"type": "Feature", "properties": {"norad_id": 30639, "name": "FENGYUN 1C DEB", "group": "fengyun-1c-debris", "lat": 56.2935518048176, "lon": -56.00854124619561, "alt_km": 807.0116743389844, "timestamp": "2025-12-23T18:59:32.245081+00:00", "meta": {"OBJECT_NAME": "FENGYUN 1C DEB", "OBJECT_ID": "1999-025ANW", "EPOCH": "2025-12-21T12:46:18.369984", "MEAN_MOTION": 14.32457299, "ECCENTRICITY": 0.0068393, "INCLINATION": 99.0183, "RA_OF_ASC_NODE": 107.8697, "ARG_OF_PERICENTER": 255.7681, "MEAN_ANOMALY": 103.5898, "EPHEMERIS_TYPE": 0, "CLASSIFICATION_TYPE": "U", "NORAD_CAT_ID": 30639, "ELEMENT_SET_NO": 999, "REV_AT_EPOCH": 96845, "BSTAR": 0.0024021, "MEAN_MOTION_DOT": 6.633e-05, "MEAN_MOTION_DDOT": 0}, "tle": {"line1": "1 30639U 99025ANW 25355.53215706  .00006633  00000+0  24021-2 0  9993", "line2": "2 30639  99.0183 107.8697 0068393 255.7681 103.5898 14.32457299968456"}}, "geometry": {"type": "Point", "coordinates": [-56.00854124619561, 56.2935518048176]}}, {"type": "Feature", "properties": {"norad_id": 30640, "name": "FENGYUN 1C DEB", "group": "fengyun-1c-debris", "lat": -80.4157288959794, "lon": 139.9898729336439, "alt_km": 903.6285450090973, "timestamp": "2025-12-23T18:59:32.245090+00:00", "meta": {"OBJECT_NAME": "FENGYUN 1C DEB", "OBJECT_ID": "1999-025ANX", "EPOCH": "2025-12-23T04:23:11.385024", "MEAN_MOTION": 14.14683628, "ECCENTRICITY": 0.00801342, "INCLINATION": 99.0564, "RA_OF_ASC_NODE": 68.5396, "ARG_OF_PERICENTER": 71.1881, "MEAN_ANOMALY": 344.6531, "EPHEMERIS_TYPE": 0, "CLASSIFICATION_TYPE": "U", "NORAD_CAT_ID": 30640, "ELEMENT_SET_NO": 999, "REV_AT_EPOCH": 96593, "BSTAR": 0.0012516294, "MEAN_MOTION_DOT": 2.439e-05, "MEAN_MOTION_DDOT": 0}, "tle": {"line1": "1 30640U 99025ANX 25357.18277066  .00002439  00000+0  12516-2 0  9991", "line2": "2 30640  99.0564  68.5396 0080134  71.1881 344.6531 14.14683628965938"}}, "geometry": {"type": "Point", "coordinates": [139.9898729336439, -80.4157288959794]}}, {"type": "Feature", "properties": {"norad_id": 30641, "name": "FENGYUN 1C DEB", "group": "fengyun-1c-debris", "lat": -75.49108868904946, "lon": 75.91018547246031, "alt_km": 732.485080859502, "timestamp": "2025-12-23T18:59:32.245099+00:00", "meta": {"OBJECT_NAME": "FENGYUN 1C DEB", "OBJECT_ID": "1999-025ANY", "EPOCH": "2025-12-23T01:39:38.715840", "MEAN_MOTION": 14.79040468, "ECCENTRICITY": 0.01363485, "INCLINATION": 98.9439, "RA_OF_ASC_NODE": 292.5935, "ARG_OF_PERICENTER": 94.3517, "MEAN_ANOMALY": 280.9422, "EPHEMERIS_TYPE": 0, "CLASSIFICATION_TYPE": "U", "NORAD_CAT_ID": 30641, "ELEMENT_SET_NO": 999, "REV_AT_EPOCH": 685, "BSTAR": 0.00053832643, "MEAN_MOTION_DOT": 4.588e-05, "MEAN_MOTION_DDOT": 0}, "tle": {"line1": "1 30641U 99025ANY 25357.06919810  .00004588  00000+0  53833-3 0  9994", "line2": "2 30641  98.9439 292.5935 0136348  94.3517 280.9422 14.79040468  6856"}}, "geometry": {"type": "Point", "coordinates": [75.91018547246031, -75.49108868904946]}}, {"type": "Feature", "properties": {"norad_id": 30646, "name": "FENGYUN 1C DEB", "group": "fengyun-1c-debris", "lat": 57.38151049140279, "lon": -148.33589137144705, "alt_km": 872.4834738949785, "timestamp": "2025-12-23T18:59:32.245108+00:00", "meta": {"OBJECT_NAME": "FENGYUN 1C DEB", "OBJECT_ID": "1999-025APD", "EPOCH": "2025-12-23T01:23:07.813248", "MEAN_MOTION": 14.09676041, "ECCENTRICITY": 0.00477846, "INCLINATION": 98.6513, "RA_OF_ASC_NODE": 17.1968, "ARG_OF_PERICENTER": 2.8526, "MEAN_ANOMALY": 357.2909, "EPHEMERIS_TYPE": 0, "CLASSIFICATION_TYPE": "U", "NORAD_CAT_ID": 30646, "ELEMENT_SET_NO": 999, "REV_AT_EPOCH": 96750, "BSTAR": 0.00067462228, "MEAN_MOTION_DOT": 1.153e-05, "MEAN_MOTION_DDOT": 0}, "tle": {"line1": "1 30646U 99025APD 25357.05772932  .00001153  00000+0  67462-3 0  9998", "line2": "2 30646  98.6513  17.1968 0047784   2.8526 357.2909 14.09676041967508"}}, "geometry": {"type": "Point", "coordinates": [-148.33589137144705, 57.38151049140279]}}, {"type": "Feature", "properties": {"norad_id": 30647, "name": "FENGYUN 1C DEB", "group": "fengyun-1c-debris", "lat": -72.90422269048294, "lon": -38.32617527240172, "alt_km": 728.646995931017, "timestamp": "2025-12-23T18:59:32.245117+00:00", "meta": {"OBJECT_NAME": "FENGYUN 1C DEB", "OBJECT_ID": "1999-025APE", "EPOCH": "2025-12-22T07:45:37.895328", "MEAN_MOTION": 14.56636582, "ECCENTRICITY": 0.00299075, "INCLINATION": 98.9905, "RA_OF_ASC_NODE": 289.1105, "ARG_OF_PERICENTER": 143.6717, "MEAN_ANOMALY": 7.1542, "EPHEMERIS_TYPE": 0, "CLASSIFICATION_TYPE": "U", "NORAD_CAT_ID": 30647, "ELEMENT_SET_NO": 999, "REV_AT_EPOCH": 98128, "BSTAR": 0.0022535273, "MEAN_MOTION_DOT": 0.00010073, "MEAN_MOTION_DDOT": 0}, "tle": {"line1": "1 30647U 99025APE 25356.32335527  .00010073  00000+0  22535-2 0  9995", "line2": "2 30647  98.9905 289.1105 0029907 143.6717   7.1542 14.56636582981287"}}, "geometry": {"type": "Point", "coordinates": [-38.32617527240172, -72.90422269048294]}}, {"type": "Feature", "properties": {"norad_id": 30648, "name": "FENGYUN 1C DEB", "group": "fengyun-1c-debris", "lat": 77.4986253422405, "lon": -44.00232909463574, "alt_km": 700.045755291665, "timestamp": "2025-12-23T18:59:32.245126+00:00", "meta": {"OBJECT_NAME": "FENGYUN 1C DEB", "OBJECT_ID": "1999-025APF", "EPOCH": "2025-12-22T06:19:48.081216", "MEAN_MOTION": 14.4825088, "ECCENTRICITY": 0.00337664, "INCLINATION": 98.6411, "RA_OF_ASC_NODE": 91.1327, "ARG_OF_PERICENTER": 99.5986, "MEAN_ANOMALY": 319.5469, "EPHEMERIS_TYPE": 0, "CLASSIFICATION_TYPE": "U", "NORAD_CAT_ID": 30648, "ELEMENT_SET_NO": 999, "REV_AT_EPOCH": 98004, "BSTAR": 0.0020874209, "MEAN_MOTION_DOT": 7.809e-05, "MEAN_MOTION_DDOT": 0}, "tle": {"line1": "1 30648U 99025APF 25356.26375094  .00007809  00000+0  20874-2 0  9999", "line2": "2 30648  98.6411  91.1327 0033766  99.5986 319.5469 14.48250880980044"}}, "geometry": {"type": "Point", "coordinates": [-44.00232909463574, 77.4986253422405]}}]}